ONEWEB-0424             
1 50497U 21132AE  23328.56797929  .00000067  00000+0  13629-3 0  9992
2 50497  87.9217 161.5848 0001752 104.5179 255.6147 13.18687646 99611
ONEWEB-0426             
1 50498U 21132AF  23328.60592754  .00000051  00000+0  96969-4 0  9999
2 50498  87.9210 161.6025 0002220  77.3321 282.8059 13.18685448 98284
ONEWEB-0427             
1 50499U 21132AG  23328.56586628  .00000080  00000+0  17100-3 0  9999
2 50499  87.9213 161.5848 0001870  88.7911 271.3436 13.18684578 98309
ONEWEB-0429             
1 50500U 21132AH  23328.55323731  .00000061  00000+0  12264-3 0  9990
2 50500  87.9199 161.5887 0001485  86.3666 273.7636 13.18690041 98277
ONEWEB-0430             
1 50501U 21132AJ  23328.61858347  .00000037  00000+0  60922-4 0  9992
2 50501  87.9215 161.5796 0001578  92.3565 267.7748 13.18683796 99619
ONEWEB-0432             
1 50502U 21132AK  23328.57430622  .00000053  00000+0  10104-3 0  9994
2 50502  87.9213 161.5836 0001501  89.2009 270.9295 13.18686860 98276
ONEWEB-0440             
1 50503U 21132AL  23328.56164978 -.00000174  00000+0 -47402-3 0  9999
2 50503  87.9141 161.5784 0001492  61.0399 299.0883 13.18686024 99557
ONEWEB-0450             
1 50504U 21132AM  23328.55534917  .00000086  00000+0  18667-3 0  9994
2 50504  87.9185 161.6093 0001164  91.2116 268.9149 13.18688029 98295
